{
  "type": "FeatureCollection",
  "features": [
    {
      "type": "Feature",
      "properties": {
        "norad_id": 30334,
        "name": "FENGYUN 1C DEB",
        "group": "fengyun-1c-debris",
        "lat": -76.39126874182723,
        "lon": 130.3047722502715,
        "alt_km": 863.4769731371853,
        "timestamp": "2025-12-15T19:00:45.631940+00:00",
        "meta_object_name": "FENGYUN 1C DEB",
        "meta_object_id": "1999-025AAV",
        "meta_epoch": "2025-12-14T18:15:01.780128",
        "meta_mean_motion": 13.92384069,
        "meta_eccentricity": 0.014473,
        "meta_inclination": 99.0211,
        "meta_ra_of_asc_node": 88.2884,
        "meta_arg_of_pericenter": 336.3736,
        "meta_mean_anomaly": 176.2343,
        "meta_ephemeris_type": 0,
        "meta_classification_type": "U",
        "meta_norad_cat_id": 30334,
        "meta_element_set_no": 999,
        "meta_rev_at_epoch": 95249,
        "meta_bstar": 0.0012291476,
        "meta_mean_motion_dot": 1.678e-05,
        "meta_mean_motion_ddot": 0,
        "tle_line1": "1 30334U 99025AAV 25348.76043727  .00001678  00000+0  12291-2 0  9994",
        "tle_line2": "2 30334  99.0211  88.2884 0144730 336.3736 176.2343 13.92384069952495"
      },
      "geometry": {
        "type": "Point",
        "coordinates": [
          130.3047722502715,
          -76.39126874182723
        ]
      }
    },
    {
      "type": "Feature",
      "properties": {
        "norad_id": 30335,
        "name": "FENGYUN 1C DEB",
        "group": "fengyun-1c-debris",
        "lat": -50.65876872147553,
        "lon": 149.9877617848528,
        "alt_km": 925.2811803096984,
        "timestamp": "2025-12-15T19:00:45.631951+00:00",
        "meta_object_name": "FENGYUN 1C DEB",
        "meta_object_id": "1999-025AAW",
        "meta_epoch": "2025-12-14T11:41:30.086592",
        "meta_mean_motion": 14.01361687,
        "meta_eccentricity": 0.01328687,
        "meta_inclination": 98.9049,
        "meta_ra_of_asc_node": 339.7412,
        "meta_arg_of_pericenter": 126.6576,
        "meta_mean_anomaly": 3.1556,
        "meta_ephemeris_type": 0,
        "meta_classification_type": "U",
        "meta_norad_cat_id": 30335,
        "meta_element_set_no": 999,
        "meta_rev_at_epoch": 96615,
        "meta_bstar": 8.8100287e-05,
        "meta_mean_motion_dot": 1.01e-06,
        "meta_mean_motion_ddot": 0,
        "tle_line1": "1 30335U 99025AAW 25348.48715378  .00000101  00000+0  88100-4 0  9996",
        "tle_line2": "2 30335  98.9049 339.7412 0132868 126.6576   3.1556 14.01361687966159"
      },
      "geometry": {
        "type": "Point",
        "coordinates": [
          149.9877617848528,
          -50.65876872147553
        ]
      }
    },
    {
      "type": "Feature",
      "properties": {
        "norad_id": 30336,
        "name": "FENGYUN 1C DEB",
        "group": "fengyun-1c-debris",
        "lat": -81.32650687435844,
        "lon": 93.43980523670815,
        "alt_km": 834.1846146390917,
        "timestamp": "2025-12-15T19:00:45.631963+00:00",
        "meta_object_name": "FENGYUN 1C DEB",
        "meta_object_id": "1999-025AAX",
        "meta_epoch": "2025-12-14T13:41:30.914880",
        "meta_mean_motion": 14.19308125,
        "meta_eccentricity": 0.00434537,
        "meta_inclination": 98.6005,
        "meta_ra_of_asc_node": 9.4664,
        "meta_arg_of_pericenter": 3.3305,
        "meta_mean_anomaly": 149.4986,
        "meta_ephemeris_type": 0,
        "meta_classification_type": "U",
        "meta_norad_cat_id": 30336,
        "meta_element_set_no": 999,
        "meta_rev_at_epoch": 97628,
        "meta_bstar": 0.00040505771,
        "meta_mean_motion_dot": 8.16e-06,
        "meta_mean_motion_ddot": 0,
        "tle_line1": "1 30336U 99025AAX 25348.57049670  .00000816  00000+0  40506-3 0  9992",
        "tle_line2": "2 30336  98.6005   9.4664 0043453   3.3305 149.4986 14.19308125976284"
      },
      "geometry": {
        "type": "Point",
        "coordinates": [
          93.43980523670815,
          -81.32650687435844
        ]
      }
    },
    {
      "type": "Feature",
      "properties": {
        "norad_id": 30338,
        "name": "FENGYUN 1C DEB",
        "group": "fengyun-1c-debris",
        "lat": -65.31676437149967,
        "lon": -139.38807315479485,
        "alt_km": 646.1306526872459,
        "timestamp": "2025-12-15T19:00:45.631974+00:00",
        "meta_object_name": "FENGYUN 1C DEB",
        "meta_object_id": "1999-025AAZ",
        "meta_epoch": "2025-12-14T19:13:04.653984",
        "meta_mean_motion": 14.47555171,
        "meta_eccentricity": 0.02720101,
        "meta_inclination": 98.4598,
        "meta_ra_of_asc_node": 58.514,
        "meta_arg_of_pericenter": 187.6209,
        "meta_mean_anomaly": 292.6947,
        "meta_ephemeris_type": 0,
        "meta_classification_type": "U",
        "meta_norad_cat_id": 30338,
        "meta_element_set_no": 999,
        "meta_rev_at_epoch": 98174,
        "meta_bstar": 0.0010154241,
        "meta_mean_motion_dot": 5.909e-05,
        "meta_mean_motion_ddot": 0,
        "tle_line1": "1 30338U 99025AAZ 25348.80074831  .00005909  00000+0  10154-2 0  9990",
        "tle_line2": "2 30338  98.4598  58.5140 0272010 187.6209 292.6947 14.47555171981748"
      },
      "geometry": {
        "type": "Point",
        "coordinates": [
          -139.38807315479485,
          -65.31676437149967
        ]
      }
    },
    {
      "type": "Feature",
      "properties": {
        "norad_id": 30339,
        "name": "FENGYUN 1C DEB",
        "group": "fengyun-1c-debris",
        "lat": 4.944977112834564,
        "lon": 95.57295908711954,
        "alt_km": 761.8190654930504,
        "timestamp": "2025-12-15T19:00:45.631986+00:00",
        "meta_object_name": "FENGYUN 1C DEB",
        "meta_object_id": "1999-025ABA",
        "meta_epoch": "2025-12-14T20:10:21.562176",
        "meta_mean_motion": 14.38199906,
        "meta_eccentricity": 0.002019,
        "meta_inclination": 98.9734,
        "meta_ra_of_asc_node": 95.3626,
        "meta_arg_of_pericenter": 78.3587,
        "meta_mean_anomaly": 42.4868,
        "meta_ephemeris_type": 0,
        "meta_classification_type": "U",
        "meta_norad_cat_id": 30339,
        "meta_element_set_no": 999,
        "meta_rev_at_epoch": 97457,
        "meta_bstar": 0.0020771408,
        "meta_mean_motion_dot": 6.28e-05,
        "meta_mean_motion_ddot": 0,
        "tle_line1": "1 30339U 99025ABA 25348.84052734  .00006280  00000+0  20771-2 0  9992",
        "tle_line2": "2 30339  98.9734  95.3626 0020190  78.3587  42.4868 14.38199906974575"
      },
      "geometry": {
        "type": "Point",
        "coordinates": [
          95.57295908711954,
          4.944977112834564
        ]
      }
    },
    {
      "type": "Feature",
      "properties": {
        "norad_id": 30340,
        "name": "FENGYUN 1C DEB",
        "group": "fengyun-1c-debris",
        "lat": -43.64449406992797,
        "lon": -142.20207759083382,
        "alt_km": 897.4597460617288,
        "timestamp": "2025-12-15T19:00:45.631996+00:00",
        "meta_object_name": "FENGYUN 1C DEB",
        "meta_object_id": "1999-025ABB",
        "meta_epoch": "2025-12-14T22:17:29.143392",
        "meta_mean_motion": 14.0459648,
        "meta_eccentricity": 0.01461918,
        "meta_inclination": 99.0008,
        "meta_ra_of_asc_node": 45.6366,
        "meta_arg_of_pericenter": 128.8118,
        "meta_mean_anomaly": 50.4223,
        "meta_ephemeris_type": 0,
        "meta_classification_type": "U",
        "meta_norad_cat_id": 30340,
        "meta_element_set_no": 999,
        "meta_rev_at_epoch": 96811,
        "meta_bstar": 0.00018287426,
        "meta_mean_motion_dot": 2.78e-06,
        "meta_mean_motion_ddot": 0,
        "tle_line1": "1 30340U 99025ABB 25348.92880953  .00000278  00000+0  18287-3 0  9996",
        "tle_line2": "2 30340  99.0008  45.6366 0146191 128.8118  50.4223 14.04596480968111"
      },
      "geometry": {
        "type": "Point",
        "coordinates": [
          -142.20207759083382,
          -43.64449406992797
        ]
      }
    },
    {
      "type": "Feature",
      "properties": {
        "norad_id": 30341,
        "name": "FENGYUN 1C DEB",
        "group": "fengyun-1c-debris",
        "lat": 32.48475150770928,
        "lon": -127.90641238401284,
        "alt_km": 740.7199051113621,
        "timestamp": "2025-12-15T19:00:45.632007+00:00",
        "meta_object_name": "FENGYUN 1C DEB",
        "meta_object_id": "1999-025ABC",
        "meta_epoch": "2025-12-14T16:11:39.262272",
        "meta_mean_motion": 14.34133522,
        "meta_eccentricity": 0.00509761,
        "meta_inclination": 99.2194,
        "meta_ra_of_asc_node": 236.8385,
        "meta_arg_of_pericenter": 51.6726,
        "meta_mean_anomaly": 335.5694,
        "meta_ephemeris_type": 0,
        "meta_classification_type": "U",
        "meta_norad_cat_id": 30341,
        "meta_element_set_no": 999,
        "meta_rev_at_epoch": 97109,
        "meta_bstar": 0.0024224548,
        "meta_mean_motion_dot": 6.838e-05,
        "meta_mean_motion_ddot": 0,
        "tle_line1": "1 30341U 99025ABC 25348.67475998  .00006838  00000+0  24225-2 0  9994",
        "tle_line2": "2 30341  99.2194 236.8385 0050976  51.6726 335.5694 14.34133522971095"
      },
      "geometry": {
        "type": "Point",
        "coordinates": [
          -127.90641238401284,
          32.48475150770928
        ]
      }
    }
  ]
}